[{"OBJECT_NAME":"ONEWEB-0092","OBJECT_ID":"2020-020P","EPOCH":"2025-12-20T22:36:31.836960","MEAN_MOTION":13.11414588,"ECCENTRICITY":0.0001746,"INCLINATION":87.8855,"RA_OF_ASC_NODE":56.5553,"ARG_OF_PERICENTER":109.5031,"MEAN_ANOMALY":250.6285,"EPHEMERIS_TYPE":0,"CLASSIFICATION_TYPE":"U","NORAD_CAT_ID":45437,"ELEMENT_SET_NO":999,"REV_AT_EPOCH":27942,"BSTAR":0.0013814,"MEAN_MOTION_DOT":5.02e-6,"MEAN_MOTION_DDOT":0},{"OBJECT_NAME":"ONEWEB-0085","OBJECT_ID":"2020-020Q","EPOCH":"2025-12-20T14:19:38.622720","MEAN_MOTION":13.11415762,"ECCENTRICITY":0.0001797,"INCLINATION":87.8854,"RA_OF_ASC_NODE":56.6327,"ARG_OF_PERICENTER":103.2201,"MEAN_ANOMALY":256.9127,"EPHEMERIS_TYPE":0,"CLASSIFICATION_TYPE":"U","NORAD_CAT_ID":45438,"ELEMENT_SET_NO":999,"REV_AT_EPOCH":27926,"BSTAR":-0.0012928,"MEAN_MOTION_DOT":-4.45e-6,"MEAN_MOTION_DDOT":0},{"OBJECT_NAME":"ONEWEB-0096","OBJECT_ID":"2020-020R","EPOCH":"2025-12-21T03:11:09.775392","MEAN_MOTION":13.11418201,"ECCENTRICITY":0.0001867,"INCLINATION":87.8865,"RA_OF_ASC_NODE":56.5072,"ARG_OF_PERICENTER":102.3838,"MEAN_ANOMALY":257.7499,"EPHEMERIS_TYPE":0,"CLASSIFICATION_TYPE":"U","NORAD_CAT_ID":45439,"ELEMENT_SET_NO":999,"REV_AT_EPOCH":27932,"BSTAR":-0.001937,"MEAN_MOTION_DOT":-6.74e-6,"MEAN_MOTION_DDOT":0},{"OBJECT_NAME":"ONEWEB-0037","OBJECT_ID":"2020-020S","EPOCH":"2025-12-21T02:43:05.614752","MEAN_MOTION":13.11413706,"ECCENTRICITY":0.000175,"INCLINATION":87.8869,"RA_OF_ASC_NODE":56.481,"ARG_OF_PERICENTER":105.2333,"MEAN_ANOMALY":254.8988,"EPHEMERIS_TYPE":0,"CLASSIFICATION_TYPE":"U","NORAD_CAT_ID":45440,"ELEMENT_SET_NO":999,"REV_AT_EPOCH":27935,"BSTAR":-0.00042227,"MEAN_MOTION_DOT":-1.37e-6,"MEAN_MOTION_DDOT":0},{"OBJECT_NAME":"ONEWEB-0042","OBJECT_ID":"2020-020T","EPOCH":"2025-12-21T04:46:10.743744","MEAN_MOTION":13.11414525,"ECCENTRICITY":0.0001819,"INCLINATION":87.8855,"RA_OF_ASC_NODE":56.493,"ARG_OF_PERICENTER":106.0617,"MEAN_ANOMALY":254.0711,"EPHEMERIS_TYPE":0,"CLASSIFICATION_TYPE":"U","NORAD_CAT_ID":45441,"ELEMENT_SET_NO":999,"REV_AT_EPOCH":27933,"BSTAR":-0.0011745,"MEAN_MOTION_DOT":-4.04e-6,"MEAN_MOTION_DDOT":0},{"OBJECT_NAME":"ONEWEB-0098","OBJECT_ID":"2020-020U","EPOCH":"2025-12-21T04:40:17.199264","MEAN_MOTION":13.11413801,"ECCENTRICITY":0.0001713,"INCLINATION":87.8856,"RA_OF_ASC_NODE":56.5054,"ARG_OF_PERICENTER":99.8364,"MEAN_ANOMALY":260.2957,"EPHEMERIS_TYPE":0,"CLASSIFICATION_TYPE":"U","NORAD_CAT_ID":45442,"ELEMENT_SET_NO":999,"REV_AT_EPOCH":27931,"BSTAR":-0.00082861,"MEAN_MOTION_DOT":-2.81e-6,"MEAN_MOTION_DDOT":0},{"OBJECT_NAME":"ONEWEB-0055","OBJECT_ID":"2020-020V","EPOCH":"2025-12-21T04:15:53.226432","MEAN_MOTION":13.11414189,"ECCENTRICITY":0.0001729,"INCLINATION":87.8852,"RA_OF_ASC_NODE":56.5092,"ARG_OF_PERICENTER":99.3674,"MEAN_ANOMALY":260.765,"EPHEMERIS_TYPE":0,"CLASSIFICATION_TYPE":"U","NORAD_CAT_ID":45443,"ELEMENT_SET_NO":999,"REV_AT_EPOCH":27928,"BSTAR":0.00094909,"MEAN_MOTION_DOT":3.49e-6,"MEAN_MOTION_DDOT":0},{"OBJECT_NAME":"ONEWEB-0093","OBJECT_ID":"2020-020W","EPOCH":"2025-12-21T03:40:41.364192","MEAN_MOTION":13.11418649,"ECCENTRICITY":0.0002181,"INCLINATION":87.8859,"RA_OF_ASC_NODE":56.5015,"ARG_OF_PERICENTER":105.147,"MEAN_ANOMALY":254.9899,"EPHEMERIS_TYPE":0,"CLASSIFICATION_TYPE":"U","NORAD_CAT_ID":45444,"ELEMENT_SET_NO":999,"REV_AT_EPOCH":27934,"BSTAR":0.00093091,"MEAN_MOTION_DOT":3.43e-6,"MEAN_MOTION_DDOT":0},{"OBJECT_NAME":"ONEWEB-0029","OBJECT_ID":"2020-020X","EPOCH":"2025-12-21T04:03:40.461984","MEAN_MOTION":13.11417725,"ECCENTRICITY":0.0001867,"INCLINATION":87.886,"RA_OF_ASC_NODE":56.5108,"ARG_OF_PERICENTER":100.0913,"MEAN_ANOMALY":260.0425,"EPHEMERIS_TYPE":0,"CLASSIFICATION_TYPE":"U","NORAD_CAT_ID":45445,"ELEMENT_SET_NO":999,"REV_AT_EPOCH":27932,"BSTAR":0.0018555,"MEAN_MOTION_DOT":6.7e-6,"MEAN_MOTION_DDOT":0},{"OBJECT_NAME":"ONEWEB-0068","OBJECT_ID":"2020-020Y","EPOCH":"2025-12-21T03:40:17.040000","MEAN_MOTION":13.11419776,"ECCENTRICITY":0.0001913,"INCLINATION":87.8858,"RA_OF_ASC_NODE":56.5032,"ARG_OF_PERICENTER":99.9737,"MEAN_ANOMALY":260.1606,"EPHEMERIS_TYPE":0,"CLASSIFICATION_TYPE":"U","NORAD_CAT_ID":45446,"ELEMENT_SET_NO":999,"REV_AT_EPOCH":27926,"BSTAR":0.00093747,"MEAN_MOTION_DOT":3.45e-6,"MEAN_MOTION_DDOT":0},{"OBJECT_NAME":"ONEWEB-0046","OBJECT_ID":"2020-020Z","EPOCH":"2025-12-20T21:58:41.084256","MEAN_MOTION":13.11417232,"ECCENTRICITY":0.0001957,"INCLINATION":87.8859,"RA_OF_ASC_NODE":56.5582,"ARG_OF_PERICENTER":108.0419,"MEAN_ANOMALY":252.0922,"EPHEMERIS_TYPE":0,"CLASSIFICATION_TYPE":"U","NORAD_CAT_ID":45447,"ELEMENT_SET_NO":999,"REV_AT_EPOCH":27924,"BSTAR":-0.00023647,"MEAN_MOTION_DOT":-7.1e-7,"MEAN_MOTION_DDOT":0},{"OBJECT_NAME":"ONEWEB-0063","OBJECT_ID":"2020-020AA","EPOCH":"2025-12-21T04:09:46.728000","MEAN_MOTION":13.11419582,"ECCENTRICITY":0.0001875,"INCLINATION":87.8856,"RA_OF_ASC_NODE":56.5042,"ARG_OF_PERICENTER":112.1113,"MEAN_ANOMALY":248.0214,"EPHEMERIS_TYPE":0,"CLASSIFICATION_TYPE":"U","NORAD_CAT_ID":45448,"ELEMENT_SET_NO":999,"REV_AT_EPOCH":27936,"BSTAR":0.001373,"MEAN_MOTION_DOT":4.99e-6,"MEAN_MOTION_DDOT":0},{"OBJECT_NAME":"ONEWEB-0019","OBJECT_ID":"2020-020AB","EPOCH":"2025-12-21T03:20:41.173152","MEAN_MOTION":13.11992956,"ECCENTRICITY":0.0001699,"INCLINATION":87.8845,"RA_OF_ASC_NODE":56.5164,"ARG_OF_PERICENTER":97.7264,"MEAN_ANOMALY":262.4057,"EPHEMERIS_TYPE":0,"CLASSIFICATION_TYPE":"U","NORAD_CAT_ID":45449,"ELEMENT_SET_NO":999,"REV_AT_EPOCH":27920,"BSTAR":-0.00056287,"MEAN_MOTION_DOT":-1.88e-6,"MEAN_MOTION_DDOT":0},{"OBJECT_NAME":"ONEWEB-0094","OBJECT_ID":"2020-020AC","EPOCH":"2025-12-21T03:10:58.444032","MEAN_MOTION":13.17647739,"ECCENTRICITY":0.0001863,"INCLINATION":87.9113,"RA_OF_ASC_NODE":41.2375,"ARG_OF_PERICENTER":94.2704,"MEAN_ANOMALY":265.864,"EPHEMERIS_TYPE":0,"CLASSIFICATION_TYPE":"U","NORAD_CAT_ID":45450,"ELEMENT_SET_NO":999,"REV_AT_EPOCH":28286,"BSTAR":-2.9464e-5,"MEAN_MOTION_DOT":1.0e-8,"MEAN_MOTION_DDOT":0},{"OBJECT_NAME":"ONEWEB-0087","OBJECT_ID":"2020-020AD","EPOCH":"2025-12-20T21:04:45.911424","MEAN_MOTION":13.11413991,"ECCENTRICITY":0.0002054,"INCLINATION":87.8866,"RA_OF_ASC_NODE":56.5228,"ARG_OF_PERICENTER":98.5433,"MEAN_ANOMALY":261.5928,"EPHEMERIS_TYPE":0,"CLASSIFICATION_TYPE":"U","NORAD_CAT_ID":45451,"ELEMENT_SET_NO":999,"REV_AT_EPOCH":27921,"BSTAR":-0.00010491,"MEAN_MOTION_DOT":-2.4e-7,"MEAN_MOTION_DDOT":0},{"OBJECT_NAME":"ONEWEB-0082","OBJECT_ID":"2020-020AE","EPOCH":"2025-12-21T02:29:40.639776","MEAN_MOTION":13.11413606,"ECCENTRICITY":0.0001989,"INCLINATION":87.8866,"RA_OF_ASC_NODE":56.503,"ARG_OF_PERICENTER":98.0817,"MEAN_ANOMALY":262.0537,"EPHEMERIS_TYPE":0,"CLASSIFICATION_TYPE":"U","NORAD_CAT_ID":45452,"ELEMENT_SET_NO":999,"REV_AT_EPOCH":27933,"BSTAR":0.00077958,"MEAN_MOTION_DOT":2.89e-6,"MEAN_MOTION_DDOT":0},{"OBJECT_NAME":"ONEWEB-0050","OBJECT_ID":"2020-020AF","EPOCH":"2025-12-21T04:07:25.866624","MEAN_MOTION":14.89600295,"ECCENTRICITY":5.8e-5,"INCLINATION":88.924,"RA_OF_ASC_NODE":257.4931,"ARG_OF_PERICENTER":211.3756,"MEAN_ANOMALY":148.7439,"EPHEMERIS_TYPE":0,"CLASSIFICATION_TYPE":"U","NORAD_CAT_ID":45453,"ELEMENT_SET_NO":999,"REV_AT_EPOCH":31387,"BSTAR":0.00021211,"MEAN_MOTION_DOT":2.045e-5,"MEAN_MOTION_DDOT":0}]
