ONEWEB-0092             
1 45437U 20020P   25354.94203515  .00000502  00000+0  13814-2 0  9990
2 45437  87.8855  56.5553 0001746 109.5031 250.6285 13.11414588279420
ONEWEB-0085             
1 45438U 20020Q   25354.59697480 -.00000445  00000+0 -12928-2 0  9993
2 45438  87.8854  56.6327 0001797 103.2201 256.9127 13.11415762279267
ONEWEB-0096             
1 45439U 20020R   25355.13275203 -.00000674  00000+0 -19370-2 0  9992
2 45439  87.8865  56.5072 0001867 102.3838 257.7499 13.11418201279329
ONEWEB-0037             
1 45440U 20020S   25355.11325943 -.00000137  00000+0 -42227-3 0  9991
2 45440  87.8869  56.4810 0001750 105.2333 254.8988 13.11413706279356
ONEWEB-0042             
1 45441U 20020T   25355.19873546 -.00000404  00000+0 -11745-2 0  9994
2 45441  87.8855  56.4930 0001819 106.0617 254.0711 13.11414525279339
ONEWEB-0098             
1 45442U 20020U   25355.19464351 -.00000281  00000+0 -82861-3 0  9996
2 45442  87.8856  56.5054 0001713  99.8364 260.2957 13.11413801279315
ONEWEB-0055             
1 45443U 20020V   25355.17769938  .00000349  00000+0  94909-3 0  9993
2 45443  87.8852  56.5092 0001729  99.3674 260.7650 13.11414189279281
ONEWEB-0093             
1 45444U 20020W   25355.15325653  .00000343  00000+0  93091-3 0  9999
2 45444  87.8859  56.5015 0002181 105.1470 254.9899 13.11418649279349
ONEWEB-0029             
1 45445U 20020X   25355.16921831  .00000670  00000+0  18555-2 0  9995
2 45445  87.8860  56.5108 0001867 100.0913 260.0425 13.11417725279326
ONEWEB-0068             
1 45446U 20020Y   25355.15297500  .00000345  00000+0  93747-3 0  9990
2 45446  87.8858  56.5032 0001913  99.9737 260.1606 13.11419776279265
ONEWEB-0046             
1 45447U 20020Z   25354.91575329 -.00000071  00000+0 -23647-3 0  9992
2 45447  87.8859  56.5582 0001957 108.0419 252.0922 13.11417232279248
ONEWEB-0063             
1 45448U 20020AA  25355.17345750  .00000499  00000+0  13730-2 0  9998
2 45448  87.8856  56.5042 0001875 112.1113 248.0214 13.11419582279365
ONEWEB-0019             
1 45449U 20020AB  25355.13936543 -.00000188  00000+0 -56287-3 0  9993
2 45449  87.8845  56.5164 0001699  97.7264 262.4057 13.11992956279207
ONEWEB-0094             
1 45450U 20020AC  25355.13262088  .00000001  00000+0 -29464-4 0  9992
2 45450  87.9113  41.2375 0001863  94.2704 265.8640 13.17647739282860
ONEWEB-0087             
1 45451U 20020AD  25354.87830916 -.00000024  00000+0 -10491-3 0  9999
2 45451  87.8866  56.5228 0002054  98.5433 261.5928 13.11413991279212
ONEWEB-0082             
1 45452U 20020AE  25355.10394259  .00000289  00000+0  77958-3 0  9994
2 45452  87.8866  56.5030 0001989  98.0817 262.0537 13.11413606279339
ONEWEB-0050             
1 45453U 20020AF  25355.17182716  .00002045  00000+0  21211-3 0  9998
2 45453  88.9240 257.4931 0000580 211.3756 148.7439 14.89600295313875
